IRIDIUM 921 [-]         
1 24873U 97034E   23258.70351236  .00015098  00000+0  60421-3 0  9992
2 24873  86.3837  62.7262 0004601 200.2248 159.8816 15.24952335433305
IRIDIUM 26 [-]          
1 24903U 97043A   23258.42422115  .00000716  00000+0  23997-3 0  9998
2 24903  86.4009  19.4281 0002277  89.8817 270.2641 14.35992344364752
IRIDIUM 22 [-]          
1 24907U 97043E   23258.75660334  .00000432  00000+0  14530-3 0  9993
2 24907  86.4009  22.3059 0002087  94.7157 265.4278 14.34901676364897
DUMMY MASS 1 [-]        
1 24925U 97048A   23258.51159796  .00000643  00000+0  70716-4 0  9990
2 24925  86.3300  71.3063 0004669 249.5750 110.4973 14.85817357409963
DUMMY MASS 2 [-]        
1 24926U 97048B   23258.77314736  .00000632  00000+0  69855-4 0  9996
2 24926  86.3299  72.6816 0005389 264.4506  95.6103 14.85579503410033
IRIDIUM 29 [-]          
1 24944U 97051A   23259.12569374  .00000556  00000+0  18704-3 0  9991
2 24944  86.3942  52.1474 0002103  98.2273 261.9162 14.35365433361641
IRIDIUM 33 [-]          
1 24946U 97051C   23258.48526210  .00000432  00000+0  14733-3 0  9994
2 24946  86.3858  51.6953 0008439  23.3445 336.8132 14.34105612360898
IRIDIUM 28 [-]          
1 24948U 97051E   23258.47423166  .00000640  00000+0  21257-3 0  9991
2 24948  86.3950  50.3036 0002269  82.0899 278.0556 14.36284766361844
